{
  "type": "FeatureCollection",
  "features": [
    {
      "type": "Feature",
      "properties": {
        "norad_id": 58654,
        "name": "BEIDOU-3 M28 (C50)",
        "group": "beidou",
        "lat": 46.96971429236863,
        "lon": 115.97129608764713,
        "alt_km": 21527.824624564266,
        "timestamp": "2025-12-07T03:52:32.762270+00:00",
        "meta_object_name": "BEIDOU-3 M28 (C50)",
        "meta_object_id": "2023-207A",
        "meta_epoch": "2025-12-03T07:26:02.398272",
        "meta_mean_motion": 1.86229561,
        "meta_eccentricity": 0.00020314,
        "meta_inclination": 55.5764,
        "meta_ra_of_asc_node": 68.9209,
        "meta_arg_of_pericenter": 265.1091,
        "meta_mean_anomaly": 94.871,
        "meta_ephemeris_type": 0,
        "meta_classification_type": "U",
        "meta_norad_cat_id": 58654,
        "meta_element_set_no": 999,
        "meta_rev_at_epoch": 1319,
        "meta_bstar": 0,
        "meta_mean_motion_dot": -5.1e-07,
        "meta_mean_motion_ddot": 0,
        "tle_line1": "1 58654U 23207A   25337.30974998 -.00000051  00000+0  00000+0 0  9996",
        "tle_line2": "2 58654  55.5764  68.9209 0002031 265.1091  94.8710  1.86229561 13199"
      },
      "geometry": {
        "type": "Point",
        "coordinates": [
          115.97129608764713,
          46.96971429236863
        ]
      }
    },
    {
      "type": "Feature",
      "properties": {
        "norad_id": 58655,
        "name": "BEIDOU-3 M26 (C48)",
        "group": "beidou",
        "lat": -14.75893284493971,
        "lon": -100.82424083314179,
        "alt_km": 21524.412924136028,
        "timestamp": "2025-12-07T03:52:32.762282+00:00",
        "meta_object_name": "BEIDOU-3 M26 (C48)",
        "meta_object_id": "2023-207B",
        "meta_epoch": "2025-12-06T07:54:02.857536",
        "meta_mean_motion": 1.862311,
        "meta_eccentricity": 0.00035756,
        "meta_inclination": 55.5812,
        "meta_ra_of_asc_node": 68.8049,
        "meta_arg_of_pericenter": 252.6761,
        "meta_mean_anomaly": 107.299,
        "meta_ephemeris_type": 0,
        "meta_classification_type": "U",
        "meta_norad_cat_id": 58655,
        "meta_element_set_no": 999,
        "meta_rev_at_epoch": 1323,
        "meta_bstar": 0,
        "meta_mean_motion_dot": -4.8e-07,
        "meta_mean_motion_ddot": 0,
        "tle_line1": "1 58655U 23207B   25340.32919974 -.00000048  00000+0  00000+0 0  9992",
        "tle_line2": "2 58655  55.5812  68.8049 0003575 252.6761 107.2990  1.86231100 13230"
      },
      "geometry": {
        "type": "Point",
        "coordinates": [
          -100.82424083314179,
          -14.75893284493971
        ]
      }
    },
    {
      "type": "Feature",
      "properties": {
        "norad_id": 61186,
        "name": "BEIDOU-3 M25 (C47)",
        "group": "beidou",
        "lat": -35.256238752735854,
        "lon": -81.2083090595956,
        "alt_km": 21518.122129491596,
        "timestamp": "2025-12-07T03:52:32.762294+00:00",
        "meta_object_name": "BEIDOU-3 M25 (C47)",
        "meta_object_id": "2024-168B",
        "meta_epoch": "2025-12-06T03:42:38.696256",
        "meta_mean_motion": 1.86229727,
        "meta_eccentricity": 0.0005472,
        "meta_inclination": 54.6479,
        "meta_ra_of_asc_node": 308.9479,
        "meta_arg_of_pericenter": 294.8981,
        "meta_mean_anomaly": 64.9511,
        "meta_ephemeris_type": 0,
        "meta_classification_type": "U",
        "meta_norad_cat_id": 61186,
        "meta_element_set_no": 999,
        "meta_rev_at_epoch": 818,
        "meta_bstar": 0,
        "meta_mean_motion_dot": -7.1e-07,
        "meta_mean_motion_ddot": 0,
        "tle_line1": "1 61186U 24168B   25340.15461454 -.00000071  00000+0  00000+0 0  9994",
        "tle_line2": "2 61186  54.6479 308.9479 0005472 294.8981  64.9511  1.86229727  8185"
      },
      "geometry": {
        "type": "Point",
        "coordinates": [
          -81.2083090595956,
          -35.256238752735854
        ]
      }
    },
    {
      "type": "Feature",
      "properties": {
        "norad_id": 61187,
        "name": "BEIDOU-3 M27 (C49)",
        "group": "beidou",
        "lat": 54.6417535817089,
        "lon": 38.71371080212203,
        "alt_km": 21524.863875195286,
        "timestamp": "2025-12-07T03:52:32.762305+00:00",
        "meta_object_name": "BEIDOU-3 M27 (C49)",
        "meta_object_id": "2024-168C",
        "meta_epoch": "2025-12-06T00:40:37.892640",
        "meta_mean_motion": 1.86229869,
        "meta_eccentricity": 0.00022747,
        "meta_inclination": 54.6434,
        "meta_ra_of_asc_node": 308.936,
        "meta_arg_of_pericenter": 331.2531,
        "meta_mean_anomaly": 78.7916,
        "meta_ephemeris_type": 0,
        "meta_classification_type": "U",
        "meta_norad_cat_id": 61187,
        "meta_element_set_no": 999,
        "meta_rev_at_epoch": 566,
        "meta_bstar": 0,
        "meta_mean_motion_dot": -7.1e-07,
        "meta_mean_motion_ddot": 0,
        "tle_line1": "1 61187U 24168C   25340.02821635 -.00000071  00000+0  00000+0 0  9992",
        "tle_line2": "2 61187  54.6434 308.9360 0002274 331.2531  78.7916  1.86229869  5669"
      },
      "geometry": {
        "type": "Point",
        "coordinates": [
          38.71371080212203,
          54.6417535817089
        ]
      }
    }
  ]
}